#cP2022  3 18 12  0  0.00000000     576 d+D   IGb14 EXT AIUB
## 2201 475200.00000000   300.00000000 59656 0.5000000000000
+   75   G01G02G03G04G05G06G07G08G09G10G11G12G13G14G15G16G17
+        G18G19G20G21G22G23G24G25G26G27G28G29G31G32R01R02R03
+        R04R05R07R08R09R12R13R14R15R17R18R19R20R21R22R24E01
+        E02E03E04E05E07E08E10E11E12E13E14E15E18E19E21E24E25
+        E26E27E30E31E33E34E36  0  0  0  0  0  0  0  0  0  0
++         6  7  6  8  7  7  7  7  6  5  8  7  8  7  7  7  7
++         8  7  7  7  7  7  6  6  6  6  7  7  7  7  8  7  7
++         8  8  7  7  6  7  7  7  6  8  8  9  9  8  7  8  6
++         6  7  6  7  6  6  7  7  7  6  8  6  6  8  6  6  6
++         7  6  6  6  6  8  7  0  0  0  0  0  0  0  0  0  0
%c M  cc GPS ccc cccc cccc cccc cccc ccccc ccccc ccccc ccccc
%c cc cc ccc ccc cccc cccc cccc cccc ccccc ccccc ccccc ccccc
%f  1.2500000  1.025000000  0.00000000000  0.000000000000000
%f  0.0000000  0.000000000  0.00000000000  0.000000000000000
%i    0    0    0    0      0      0      0      0         0
%i    0    0    0    0      0      0      0      0         0
/* Center for Orbit Determination in Europe (CODE)          
/* Ultra-rapid GRE orbits starting year-day 22077 12 hour   
/* Observed/predicted: 24/24 hours (data used up to 078L)   
/* PCV:IGS14      OL/AL:FES2014b NONE     YN ORB:CoN CLK:BRD
*  2022  3 19  4  5  0.00000000
PG01  -4130.891268  16845.800280 -20289.900278    405.525389
PG02  20923.407797 -16041.916767   4420.754832   -652.408363
PG03   6357.124913  18804.025198 -17805.041949   -169.829322
PG04   -471.445804  26339.743237   3013.072726   -182.618034
PG05   9956.547804 -11625.246997  21554.290722    -75.180027
PG06  24042.067055  -4006.276947 -10582.613391    236.196106
PG07  13066.509625  10392.699339  21137.445472    316.711689
PG08  -6244.546895  24503.429356   7477.662688    -60.411614
PG09   8088.805884  21776.808255  12779.306223   -348.979459
PG10 -23639.181304 -11018.710450  -5640.317692   -351.285781
PG11  22915.956106 -12820.138306   3955.014425    -60.168865
PG12  -1728.620282 -18264.115820 -19519.335784   -187.044676
PG13  12943.033185 -18968.767338  13049.360231    279.263641
PG14  23066.869798  12235.313330  -5085.703758    -95.194797
PG15   3114.642859 -25341.270189   6286.201587    -75.694684
PG16 -14626.640991   6684.056358  20950.137233   -482.271325
PG17  13427.739365   7444.483025 -21237.814539    589.066721
PG18 -12371.071376 -10187.034579  21194.426310    216.542877
PG19  15162.602812   -663.093532 -22042.328204    132.891454
PG20  18059.619851  -6353.986097  18312.090961    516.237623
PG21 -13850.553434  18247.202927 -12189.858560    159.552457
PG22 -15319.483072   4428.326563 -20803.914290    229.712953
PG23 -20076.872160 -16705.498046   5095.209909     -7.999153
PG24   7193.706526 -19037.952668 -17146.402292    266.675643
PG25 -14783.977489 -19277.243444 -11347.803055    300.253913
PG26 -22561.646766  -1304.259470  14111.623778    191.919927
PG27 -12277.807405  16377.027789  16497.458642    158.568768
PG28  22024.923631   6795.083879 -12476.238140    377.362898
PG29  -4674.256967 -23306.573470  11741.970036   -493.029997
PG31 -25000.760433   5247.128857  -8229.547680   -169.565947
PG32 -14975.257169  -3359.822435 -21550.120239    -87.591276
PR01  11226.322140  22797.159371   2315.333095      7.284196
PR02  13668.392947   9536.815032  19333.026756    512.930075
PR03   8064.436487  -8649.688820  22655.611177     53.355696
PR04  -2022.165395 -21624.642504  13416.985890    132.590906
PR05 -10873.542145 -22855.559694  -3254.832769     89.614444
PR07  -7704.365398   9257.557528 -22436.576938     32.818104
PR08   2155.350588  21692.823894 -13164.337301    -64.090574
PR09 -25131.135822  -3734.021028  -1783.343257     45.111598
PR12  15176.697913  10441.738736  17652.194677     17.491508
PR13  24953.103664   4344.630766   2983.332881    -19.643483
PR14  20243.817251  -4705.589313 -14791.918136     75.533226
PR15   3772.152592 -10584.494564 -22885.952576     97.445965
PR17  17572.135428 -16564.045622  -8161.686717    510.692836
PR18  11608.782271 -21012.906927   8725.229706    110.736099
PR19    738.409884 -15107.181881  20541.645550   -182.101114
PR20 -13698.194891   1573.178139  21456.098663    -66.966730
PR21 -17476.671258  17316.870783   6770.869792   -286.429975
PR22 -11141.704869  20783.770933  -9602.885762   -171.477536
PR24  14359.825982  -2310.197948 -20936.708515     85.042985
PE01  25422.717361  14871.544896   2882.236720   -599.529744
PE02 -25500.992777 -14802.806227  -2741.435319    287.171836
PE03 -15085.674759 -15940.550742 -19855.688319   -538.852068
PE04  16475.833662  -5972.985127  23863.642276   -987.609499
PE05  -4792.708001 -28921.597574  -4087.074454   -199.044389
PE07  -8123.981625  24889.308750 -13808.802257   -649.756369
PE08 -16232.775899   6461.298572 -23890.905313   -497.533233
PE10  24308.022958 -16890.985983    350.300649   -501.353014
PE11  18466.990998 -20671.758088  10410.149196   4193.515548
PE12  26129.935126 -10482.402603  -9179.543932   4706.479836
PE13 -18906.395404  20539.706270  -9814.414718    427.387928
PE14   9504.633512 -23522.050698  -7884.290849  -1783.203302
PE15 -26064.676645  10438.571651   9361.245985    756.942428
PE18    833.640521  30207.299140  -6088.536247  -1667.461518
PE19  14097.104379  18310.366230  18504.993678  -1552.962990
PE21  11756.828143  19872.662236  18509.544816   -723.359559
PE24  10820.989222 -13111.301908 -24246.678490   -513.155163
PE25 -11510.606546 -19877.121003 -18676.384029   -567.298154
PE26    371.158517  18198.952445 -23333.978510   -928.837939
PE27  -9508.358487  13808.632129  24392.279434   -256.371007
PE30 -25463.279047  -1247.876747  15044.710330   -360.046082
PE31  24976.586295    317.552430 -15872.987651   -493.743601
PE33  17835.930512   5747.832154 -22910.973605   -458.436759
PE34 -17991.093483  -5562.739335  22834.523249   -507.500343
PE36    704.663934 -18515.622490  23092.812515   -347.300146
EOF
